OBJECT_NAME,OBJECT_ID,EPOCH,MEAN_MOTION,ECCENTRICITY,INCLINATION,RA_OF_ASC_NODE,ARG_OF_PERICENTER,MEAN_ANOMALY,EPHEMERIS_TYPE,CLASSIFICATION_TYPE,NORAD_CAT_ID,ELEMENT_SET_NO,REV_AT_EPOCH,BSTAR,MEAN_MOTION_DOT,MEAN_MOTION_DDOT
ONEWEB-0572,2023-004M,2026-06-09T13:06:17.250336,13.17647784,.0001852,87.9137,7.3860,93.2329,266.9015,0,U,55151,999,16647,-.84476378E-4,-.2E-6,0
ONEWEB-0573,2023-004N,2026-06-09T12:39:20.507616,13.18685691,.00019335,87.9158,336.9945,118.8223,241.3103,0,U,55152,999,16868,.16827973E-3,.79E-6,0
ONEWEB-0588,2023-004P,2026-06-09T12:29:37.341312,13.18684947,.00022813,87.9156,336.9961,99.4523,260.6867,0,U,55153,999,16868,.16998426E-3,.8E-6,0
ONEWEB-0598,2023-004Q,2026-06-09T09:04:18.685056,13.11416818,.00014127,87.8893,22.6233,107.1527,252.9755,0,U,55154,999,16487,.14120833E-2,.513E-5,0
ONEWEB-0599,2023-004R,2026-06-09T12:10:24.191616,13.17648527,.00016434,87.9137,7.3925,84.2827,275.8492,0,U,55155,999,16647,.12793059E-3,.63E-6,0
ONEWEB-0614,2023-004S,2026-06-09T08:56:58.763904,13.11418109,.00020484,87.8890,22.6332,82.9645,277.1716,0,U,55156,999,16481,.14955215E-2,.543E-5,0
ONEWEB-0616,2023-004T,2026-06-09T13:11:09.595104,13.17648409,.00011864,87.9138,7.3874,61.0177,299.1074,0,U,55157,999,16669,.16002201E-3,.75E-6,0
ONEWEB-0617,2023-004U,2026-06-09T08:39:53.684928,13.11419124,.00022384,87.8898,22.6263,87.5647,272.5738,0,U,55158,999,16483,.55239444E-3,.208E-5,0
ONEWEB-0618,2023-004V,2026-06-09T12:27:56.119392,15.13087613,.00105631,86.9108,180.7474,334.4003,25.6712,0,U,55159,999,18110,.20642762E-3,.3688E-4,0
ONEWEB-0619,2023-004W,2026-06-09T12:07:59.030112,13.17648404,.00020748,87.9149,7.3761,75.8430,284.2932,0,U,55160,999,16658,.20333125E-3,.92E-6,0
ONEWEB-0620,2023-004X,2026-06-09T08:32:32.950752,13.11420074,.00018079,87.8895,22.6364,92.9423,267.1912,0,U,55161,999,16480,-.25818472E-4,.4E-7,0
ONEWEB-0621,2023-004Y,2026-06-09T12:51:21.858624,13.11416432,.00020317,87.8902,22.5884,82.4437,277.6921,0,U,55162,999,16480,.13300352E-2,.484E-5,0
ONEWEB-0622,2023-004Z,2026-06-09T12:58:41.530944,13.11415545,.00024788,87.8903,22.5898,93.7214,266.4197,0,U,55163,999,16479,.83696117E-3,.309E-5,0
ONEWEB-0623,2023-004AA,2026-06-09T12:00:41.168736,13.17649297,.00026061,87.9137,7.4082,82.2010,277.9417,0,U,55164,999,16657,.12138179E-3,.6E-6,0
ONEWEB-0624,2023-004AB,2026-06-09T11:56:48.408000,13.12928780,.00019033,87.8945,352.1163,87.4265,272.7082,0,U,55165,999,16706,-.36136662E-3,-.118E-5,0
ONEWEB-0625,2023-004AC,2026-06-09T11:46:06.913920,13.17648362,.00017353,87.9139,7.4058,82.6771,277.4558,0,U,55166,999,16656,.29416172E-4,.24E-6,0
ONEWEB-0626,2023-004AD,2026-06-09T13:20:53.361888,13.17648764,.00016975,87.9137,7.3923,99.8238,260.3086,0,U,55167,999,16657,.13044698E-3,.64E-6,0
ONEWEB-0627,2023-004AE,2026-06-09T13:03:51.287904,13.17647346,.00023501,87.9136,7.3952,83.7593,276.3806,0,U,55168,999,16657,-.28193846E-4,.2E-7,0
ONEWEB-0628,2023-004AF,2026-06-09T13:15:44.477568,13.12444080,.00024635,87.8948,352.1715,81.9959,278.1449,0,U,55169,999,16703,-.82951818E-3,-.286E-5,0
ONEWEB-0629,2023-004AG,2026-06-09T12:28:36.920064,13.17651054,.0001989,87.9136,7.3963,78.1930,281.9424,0,U,55170,999,16657,.3706466E-5,.14E-6,0
ONEWEB-0631,2023-004AH,2026-06-09T12:19:54.536160,13.18685128,.00021134,87.9167,336.9627,104.2159,255.9208,0,U,55171,999,16866,.20658636E-3,.94E-6,0
ONEWEB-0709,2023-004AJ,2026-06-09T08:17:53.771136,13.11416880,.00014423,87.8890,22.6406,112.9925,247.1355,0,U,55172,999,16484,-.12146658E-2,-.418E-5,0
ONEWEB-0710,2023-004AK,2026-06-09T12:49:17.242176,13.17649075,.00020205,87.9135,7.3887,87.8924,272.2439,0,U,55173,999,16657,.969454E-5,.17E-6,0
ONEWEB-0711,2023-004AL,2026-06-09T13:06:01.592928,13.11416332,.00025524,87.8894,22.5876,86.2927,273.8493,0,U,55174,999,16483,.32990389E-3,.13E-5,0
ONEWEB-0713,2023-004AM,2026-06-09T08:03:15.268032,13.11415264,.00021931,87.8896,22.6309,85.8856,274.2522,0,U,55175,999,16479,-.12932557E-2,-.446E-5,0
ONEWEB-0715,2023-004AN,2026-06-09T07:55:55.926624,13.11416367,.000179,87.8893,22.6328,106.6725,253.4600,0,U,55176,999,16483,-.11541468E-2,-.396E-5,0
ONEWEB-0716,2023-004AP,2026-06-09T12:39:34.062048,13.17649020,.00016877,87.9140,7.3930,82.1826,277.9497,0,U,55177,999,16657,-.24298093E-4,.3E-7,0
ONEWEB-0717,2023-004AQ,2026-06-09T12:15:15.820992,13.17648162,.00023844,87.9148,7.3827,92.6961,267.4444,0,U,55178,999,16662,.6609614E-5,.15E-6,0
ONEWEB-0719,2023-004AR,2026-06-09T12:29:51.268992,13.17648126,.00018249,87.9146,7.3614,80.7786,279.3552,0,U,55179,999,16657,-.18224016E-4,.6E-7,0
ONEWEB-0530,2023-029A,2026-06-09T06:53:15.452160,13.20771077,.00023663,87.9180,276.0442,95.0966,265.0438,0,U,55796,999,16010,.40176776E-4,.29E-6,0
