ONEWEB-0572             
1 55151U 23004M   26160.54603299 -.00000020  00000+0 -84476-4 0  9995
2 55151  87.9137   7.3860 0001852  93.2329 266.9015 13.17647784166473
ONEWEB-0573             
1 55152U 23004N   26160.52732069  .00000079  00000+0  16828-3 0  9999
2 55152  87.9158 336.9945 0001933 118.8223 241.3103 13.18685691168689
ONEWEB-0588             
1 55153U 23004P   26160.52057108  .00000080  00000+0  16998-3 0  9994
2 55153  87.9156 336.9961 0002281  99.4523 260.6867 13.18684947168684
ONEWEB-0598             
1 55154U 23004Q   26160.37799404  .00000513  00000+0  14121-2 0  9996
2 55154  87.8893  22.6233 0001412 107.1527 252.9755 13.11416818164879
ONEWEB-0599             
1 55155U 23004R   26160.50722444  .00000063  00000+0  12793-3 0  9996
2 55155  87.9137   7.3925 0001643  84.2827 275.8492 13.17648527166474
ONEWEB-0614             
1 55156U 23004S   26160.37290236  .00000543  00000+0  14955-2 0  9995
2 55156  87.8890  22.6332 0002048  82.9645 277.1716 13.11418109164810
ONEWEB-0616             
1 55157U 23004T   26160.54941661  .00000075  00000+0  16002-3 0  9996
2 55157  87.9138   7.3874 0001186  61.0177 299.1074 13.17648409166691
ONEWEB-0617             
1 55158U 23004U   26160.36103802  .00000208  00000+0  55239-3 0  9997
2 55158  87.8898  22.6263 0002238  87.5647 272.5738 13.11419124164830
ONEWEB-0618             
1 55159U 23004V   26160.51939953  .00003688  00000+0  20643-3 0  9995
2 55159  86.9108 180.7474 0010563 334.4003  25.6712 15.13087613181101
ONEWEB-0619             
1 55160U 23004W   26160.50554433  .00000092  00000+0  20333-3 0  9994
2 55160  87.9149   7.3761 0002074  75.8430 284.2932 13.17648404166585
ONEWEB-0620             
1 55161U 23004X   26160.35593693  .00000004  00000+0 -25818-4 0  9997
2 55161  87.8895  22.6364 0001807  92.9423 267.1912 13.11420074164803
ONEWEB-0621             
1 55162U 23004Y   26160.53566966  .00000484  00000+0  13300-2 0  9993
2 55162  87.8902  22.5884 0002031  82.4437 277.6921 13.11416432164807
ONEWEB-0622             
1 55163U 23004Z   26160.54075846  .00000309  00000+0  83696-3 0  9999
2 55163  87.8903  22.5898 0002478  93.7214 266.4197 13.11415545164790
ONEWEB-0623             
1 55164U 23004AA  26160.50047649  .00000060  00000+0  12138-3 0  9993
2 55164  87.9137   7.4082 0002606  82.2010 277.9417 13.17649297166577
ONEWEB-0624             
1 55165U 23004AB  26160.49778250 -.00000118  00000+0 -36137-3 0  9992
2 55165  87.8945 352.1163 0001903  87.4265 272.7082 13.12928780167060
ONEWEB-0625             
1 55166U 23004AC  26160.49035780  .00000024  00000+0  29416-4 0  9994
2 55166  87.9139   7.4058 0001735  82.6771 277.4558 13.17648362166566
ONEWEB-0626             
1 55167U 23004AD  26160.55617317  .00000064  00000+0  13045-3 0  9998
2 55167  87.9137   7.3923 0001697  99.8238 260.3086 13.17648764166574
ONEWEB-0627             
1 55168U 23004AE  26160.54434361  .00000002  00000+0 -28194-4 0  9999
2 55168  87.9136   7.3952 0002350  83.7593 276.3806 13.17647346166571
ONEWEB-0628             
1 55169U 23004AF  26160.55259812 -.00000286  00000+0 -82952-3 0  9993
2 55169  87.8948 352.1715 0002463  81.9959 278.1449 13.12444080167031
ONEWEB-0629             
1 55170U 23004AG  26160.51987176  .00000014  00000+0  37065-5 0  9996
2 55170  87.9136   7.3963 0001989  78.1930 281.9424 13.17651054166575
ONEWEB-0631             
1 55171U 23004AH  26160.51382565  .00000094  00000+0  20659-3 0  9995
2 55171  87.9167 336.9627 0002113 104.2159 255.9208 13.18685128168665
ONEWEB-0709             
1 55172U 23004AJ  26160.34576124 -.00000418  00000+0 -12147-2 0  9997
2 55172  87.8890  22.6406 0001442 112.9925 247.1355 13.11416880164845
ONEWEB-0710             
1 55173U 23004AK  26160.53422734  .00000017  00000+0  96945-5 0  9990
2 55173  87.9135   7.3887 0002020  87.8924 272.2439 13.17649075166578
ONEWEB-0711             
1 55174U 23004AL  26160.54585177  .00000130  00000+0  32990-3 0  9997
2 55174  87.8894  22.5876 0002552  86.2927 273.8493 13.11416332164839
ONEWEB-0713             
1 55175U 23004AM  26160.33559338 -.00000446  00000+0 -12933-2 0  9991
2 55175  87.8896  22.6309 0002193  85.8856 274.2522 13.11415264164797
ONEWEB-0715             
1 55176U 23004AN  26160.33050841 -.00000396  00000+0 -11541-2 0  9995
2 55176  87.8893  22.6328 0001790 106.6725 253.4600 13.11416367164831
ONEWEB-0716             
1 55177U 23004AP  26160.52747757  .00000003  00000+0 -24298-4 0  9995
2 55177  87.9140   7.3930 0001687  82.1826 277.9497 13.17649020166570
ONEWEB-0717             
1 55178U 23004AQ  26160.51059978  .00000015  00000+0  66096-5 0  9991
2 55178  87.9148   7.3827 0002384  92.6961 267.4444 13.17648162166623
ONEWEB-0719             
1 55179U 23004AR  26160.52073228  .00000006  00000+0 -18224-4 0  9997
2 55179  87.9146   7.3614 0001824  80.7786 279.3552 13.17648126166573
ONEWEB-0530             
1 55796U 23029A   26160.28698440  .00000029  00000+0  40177-4 0  9997
2 55796  87.9180 276.0442 0002366  95.0966 265.0438 13.20771077160105
